*******************************************************************************
Ephemeris / WWW_USER Tue Mar 27 21:53:37 2018 Pasadena, USA      / Horizons    
*******************************************************************************
Target body name: Moon (301)                      {source: DE431mx}
Center body name: Solar System Barycenter (0)     {source: DE431mx}
Center-site name: BODY CENTER
*******************************************************************************
Start time      : A.D. 2018-Feb-08 00:00:00.0000 TDB
Stop  time      : A.D. 2019-Feb-08 00:00:00.0000 TDB
Step-size       : 7200 minutes
*******************************************************************************
Center geodetic : 0.00000000,0.00000000,0.0000000 {E-lon(deg),Lat(deg),Alt(km)}
Center cylindric: 0.00000000,0.00000000,0.0000000 {E-lon(deg),Dxy(km),Dz(km)}
Center radii    : (undefined)                                                  
Output units    : AU-D                                                         
Output type     : GEOMETRIC cartesian states
Output format   : 2 (position and velocity)
Reference frame : ICRF/J2000.0                                                 
Coordinate systm: Ecliptic and Mean Equinox of Reference Epoch                 
*******************************************************************************
JDTDB
   X     Y     Z
   VX    VY    VZ
*******************************************************************************
$$SOE
2458157.500000000 = A.D. 2018-Feb-08 00:00:00.0000 TDB 
  -7.435244256738219E-01  6.524485977717414E-01  1.015953681652731E-04
  -1.116379744381885E-02 -1.338842138785938E-02 -3.920821991608030E-06
2458162.500000000 = A.D. 2018-Feb-13 00:00:00.0000 TDB 
  -7.959505606246540E-01  5.845114582589217E-01 -4.036544595255163E-05
  -9.894590902352901E-03 -1.375871959561874E-02 -4.679726712713191E-05
2458167.500000000 = A.D. 2018-Feb-18 00:00:00.0000 TDB 
  -8.432831491188562E-01  5.146749977383134E-01 -2.801463886627396E-04
  -9.097278196977329E-03 -1.423940220669481E-02 -3.909036810540031E-05
2458172.500000000 = A.D. 2018-Feb-23 00:00:00.0000 TDB 
  -8.870066192835303E-01  4.411954814601478E-01 -3.462764165128223E-04
  -8.335717143068837E-03 -1.524950308663498E-02  1.712845133475779E-05
2458177.500000000 = A.D. 2018-Feb-28 00:00:00.0000 TDB 
  -9.254515535519833E-01  3.616616995636187E-01 -1.349433053960402E-04
  -6.887547848524911E-03 -1.653577971323238E-02  5.722672164789774E-05
2458182.500000000 = A.D. 2018-Mar-05 00:00:00.0000 TDB 
  -9.547528665507207E-01  2.770076915333532E-01  9.431623013837405E-05
  -4.805695424208299E-03 -1.716236155593241E-02  2.394674375700835E-05
2458187.500000000 = A.D. 2018-Mar-10 00:00:00.0000 TDB 
  -9.740057411617372E-01  1.913598592389904E-01  6.993422837663814E-05
  -2.987406991314201E-03 -1.701776132636003E-02 -3.098496099177823E-05
2458192.500000000 = A.D. 2018-Mar-15 00:00:00.0000 TDB 
  -9.856072766593976E-01  1.071083363127617E-01 -1.521516405945777E-04
  -1.745212121064965E-03 -1.670199215627420E-02 -4.899385496943300E-05
2458197.500000000 = A.D. 2018-Mar-20 00:00:00.0000 TDB 
  -9.921017859414838E-01  2.370807306649767E-02 -3.229031458877397E-04
  -8.682506620716094E-04 -1.675585904095143E-02 -1.075465382315254E-05
2458202.500000000 = A.D. 2018-Mar-25 00:00:00.0000 TDB 
  -9.937383674834914E-01 -6.135886608208557E-02 -2.263388774617808E-04
   3.321828061507152E-04 -1.731613336450174E-02  4.558197105418077E-05
2458207.500000000 = A.D. 2018-Mar-30 00:00:00.0000 TDB 
  -9.874606168399899E-01 -1.490567836115735E-01  3.267833608962284E-05
   2.276496743892254E-03 -1.764065150399764E-02  4.509523986390465E-05
2458212.500000000 = A.D. 2018-Apr-04 00:00:00.0000 TDB 
  -9.708300226081187E-01 -2.362430132370845E-01  1.316029654208442E-04
   4.310556767744692E-03 -1.710022831883815E-02 -8.445362548875859E-06
2458217.500000000 = A.D. 2018-Apr-09 00:00:00.0000 TDB 
  -9.453715073220654E-01 -3.192826625876513E-01 -2.276179642856980E-05
   5.761708472373075E-03 -1.609303538339573E-02 -4.644541028417334E-05
2458222.500000000 = A.D. 2018-Apr-14 00:00:00.0000 TDB 
  -9.142013591484409E-01 -3.974113696681824E-01 -2.451762309046170E-04
   6.631827053456665E-03 -1.522642280271677E-02 -3.283069231081691E-05
2458227.500000000 = A.D. 2018-Apr-19 00:00:00.0000 TDB 
  -8.792549343224543E-01 -4.725407722277184E-01 -2.732363183180843E-04
   7.400690046070267E-03 -1.492696654567815E-02  2.441466182185399E-05
2458232.500000000 = A.D. 2018-Apr-24 00:00:00.0000 TDB 
  -8.390616650916315E-01 -5.470755038669177E-01 -5.070851821707358E-05
   8.804802277499944E-03 -1.483820738862416E-02  5.333400217323802E-05
2458237.500000000 = A.D. 2018-Apr-29 00:00:00.0000 TDB 
  -7.904626304238155E-01 -6.197429212644736E-01  1.424110399558542E-04
   1.063192126480845E-02 -1.408025345838592E-02  1.553593246895815E-05
2458242.500000000 = A.D. 2018-May-04 00:00:00.0000 TDB 
  -7.334583900872856E-01 -6.866724878810870E-01  8.343857894922906E-05
   1.205582364840342E-02 -1.262191188593248E-02 -3.543446567527206E-05
2458247.500000000 = A.D. 2018-May-09 00:00:00.0000 TDB 
  -6.710822916659230E-01 -7.458132836526794E-01 -1.410156572221990E-04
   1.278870493770117E-02 -1.106731406995204E-02 -4.536458244470393E-05
2458252.500000000 = A.D. 2018-May-14 00:00:00.0000 TDB 
  -6.063320310570970E-01 -7.980822918400644E-01 -2.786129224884921E-04
   1.308334060978748E-02 -9.948775266952736E-03 -1.984047351811597E-06
2458257.500000000 = A.D. 2018-May-19 00:00:00.0000 TDB 
  -5.397537420528979E-01 -8.463353518980339E-01 -1.420482459576677E-04
   1.366903087696946E-02 -9.400446848498976E-03  5.027421043739543E-05
2458262.500000000 = A.D. 2018-May-24 00:00:00.0000 TDB 
  -4.684495343949390E-01 -8.915901869682672E-01  1.064112511168653E-04
   1.491595988468011E-02 -8.576941571860437E-03  3.698271179946107E-05
2458267.500000000 = A.D. 2018-May-29 00:00:00.0000 TDB 
  -3.907654614896416E-01 -9.307639786629102E-01  1.571810711676816E-04
   1.607373387858442E-02 -6.984114384497503E-03 -1.763111051806240E-05
2458272.500000000 = A.D. 2018-Jun-03 00:00:00.0000 TDB 
  -3.088686555325021E-01 -9.608671018375943E-01 -2.821040121749572E-05
   1.656133877972556E-02 -5.055035637844923E-03 -4.878370238848251E-05
2458277.500000000 = A.D. 2018-Jun-08 00:00:00.0000 TDB 
  -2.262152785192875E-01 -9.817523488630019E-01 -2.404539862108585E-04
   1.642250249253403E-02 -3.382252985791867E-03 -2.703078879211176E-05
2458282.500000000 = A.D. 2018-Jun-13 00:00:00.0000 TDB 
  -1.449018721296368E-01 -9.957973856645478E-01 -2.306753967133331E-04
   1.614944145043618E-02 -2.352124277026039E-03  3.268815676616847E-05
2458287.500000000 = A.D. 2018-Jun-18 00:00:00.0000 TDB 
  -6.357381493980317E-02 -1.005794685631172E+00  1.835430944809468E-05
   1.651153423834985E-02 -1.596346150030892E-03  5.334982337278442E-05
2458292.500000000 = A.D. 2018-Jun-23 00:00:00.0000 TDB 
   2.077400028558738E-02 -1.010571453263719E+00  1.829395952684740E-04
   1.719655884153877E-02 -1.830841479419355E-04  6.141342268591681E-06
2458297.500000000 = A.D. 2018-Jun-28 00:00:00.0000 TDB 
   1.075090104032327E-01 -1.006707478476678E+00  7.958620507520541E-05
   1.737730767298158E-02  1.769732508206315E-03 -4.240285396019460E-05
2458302.500000000 = A.D. 2018-Jul-03 00:00:00.0000 TDB 
   1.933375101208487E-01 -9.929837588248068E-01 -1.613627805590765E-04
   1.684863821594135E-02  3.662010374168773E-03 -4.460845319779925E-05
2458307.500000000 = A.D. 2018-Jul-08 00:00:00.0000 TDB 
   2.752884444099353E-01 -9.710165989686482E-01 -2.796809110727710E-04
   1.590868619068209E-02  5.006087090233841E-03  3.787700493722914E-06
2458312.500000000 = A.D. 2018-Jul-13 00:00:00.0000 TDB 
   3.528965883152149E-01 -9.440586602103089E-01 -1.142201413631208E-04
   1.525436280143573E-02  5.711999780520755E-03  5.521244354468403E-05
2458317.500000000 = A.D. 2018-Jul-18 00:00:00.0000 TDB 
   4.290829676698028E-01 -9.134953097608022E-01  1.391970428127263E-04
   1.528015222322023E-02  6.639105946858190E-03  3.304235847921136E-05
2458322.500000000 = A.D. 2018-Jul-23 00:00:00.0000 TDB 
   5.053675286633551E-01 -8.764396236008085E-01  1.563472405310047E-04
   1.513697019069662E-02  8.263920211232357E-03 -2.511602061942018E-05
2458327.500000000 = A.D. 2018-Jul-28 00:00:00.0000 TDB 
   5.792825461182962E-01 -8.305950382087937E-01 -5.639069135514314E-05
   1.431045899638984E-02  1.004838664841330E-02 -5.150344830261979E-05
2458332.500000000 = A.D. 2018-Aug-02 00:00:00.0000 TDB 
   6.474942193616652E-01 -7.766522175517820E-01 -2.657245419973727E-04
   1.291074079471499E-02  1.142310237597663E-02 -2.358031089824490E-05
2458337.500000000 = A.D. 2018-Aug-07 00:00:00.0000 TDB 
   7.082833231371869E-01 -7.175897234007583E-01 -2.364813084629347E-04
   1.145817773136385E-02  1.208282248137556E-02  3.582810184195892E-05
2458342.500000000 = A.D. 2018-Aug-12 00:00:00.0000 TDB 
   7.632152810349465E-01 -6.564470387143383E-01  2.173286139986432E-05
   1.065071865758387E-02  1.240783446936181E-02  5.354890899362313E-05
2458347.500000000 = A.D. 2018-Aug-17 00:00:00.0000 TDB 
   8.154260189989871E-01 -5.923864104402821E-01  1.724207117527368E-04
   1.019797220256751E-02  1.334275557164489E-02  8.320613205883103E-07
2458352.500000000 = A.D. 2018-Aug-22 00:00:00.0000 TDB 
   8.642556808849187E-01 -5.222939032298402E-01  4.433174167938775E-05
   9.217251473694564E-03  1.470740130584092E-02 -4.571243962813495E-05
2458357.500000000 = A.D. 2018-Aug-27 00:00:00.0000 TDB 
   9.065006378506751E-01 -4.456824600826862E-01 -1.993882113145652E-04
   7.590342150522514E-03  1.585566114249876E-02 -4.233384180020712E-05
2458362.500000000 = A.D. 2018-Sep-01 00:00:00.0000 TDB 
   9.396548292939202E-01 -3.648784493438889E-01 -2.974691573096859E-04
   5.674115473808258E-03  1.633419051367244E-02  8.178060138973149E-06
